      2.10          N: GNSS NAV DATA                        RINEX VERSION / TYPE
fic2rin                                 07/04/2021 00:17:07 PGM / RUN BY / DATE
                                                            END OF HEADER
31 21  7  3 12  0  0.0-1.265415921807e-04-2.160049916711e-12 0.000000000000e+00
    3.400000000000e+01 4.203125000000e+01 4.562690054355e-09-1.932479786786e+00
    1.782551407814e-06 1.002945424989e-02 9.583309292793e-06 5.153564601898e+03
    5.616000000000e+05 9.313225746155e-09-9.088932823220e-01-1.396983861923e-07
    9.556673186026e-01 1.924687500000e+02 2.675353657276e-01-7.912115285646e-09
    1.535778257043e-10 1.000000000000e+00 2.164000000000e+03 0.000000000000e+00
    2.400000000000e+00 0.000000000000e+00-1.303851604462e-08 3.400000000000e+01
    5.544000000000e+05 4.000000000000e+00
22 21  7  3 12  0  0.0-5.729659460485e-04 9.549694368616e-12 0.000000000000e+00
    3.700000000000e+01-4.593750000000e+00 5.218788812073e-09 3.803912929613e-01
   -3.855675458908e-07 6.958271260373e-03 6.640329957008e-06 5.153792257309e+03
    5.616000000000e+05 5.401670932770e-08-3.128925458065e+00-1.285225152969e-07
    9.357495631425e-01 2.416875000000e+02-9.285948228788e-01-8.515711856437e-09
    1.689356082747e-10 1.000000000000e+00 2.164000000000e+03 0.000000000000e+00
    3.400000000000e+00 0.000000000000e+00-1.769512891769e-08 3.700000000000e+01
    5.544000000000e+05 4.000000000000e+00
15 21  7  3 12  0  0.0-1.381314359605e-04 2.614797267597e-12 0.000000000000e+00
    7.600000000000e+01-3.000000000000e+01 5.380938423398e-09 5.226086736175e-01
   -1.445412635803e-06 1.327902160119e-02 6.631016731262e-06 5.153635969162e+03
    5.616000000000e+05-2.365559339523e-07-2.098900061578e+00 8.381903171539e-08
    9.289383906526e-01 2.371250000000e+02 9.954421330519e-01-8.645002956216e-09
   -1.660783464012e-10 1.000000000000e+00 2.164000000000e+03 0.000000000000e+00
    2.400000000000e+00 0.000000000000e+00-1.071020960808e-08 7.600000000000e+01
    5.544000000000e+05 4.000000000000e+00
32 21  7  3 12  0  0.0 1.593166962266e-05-1.818989403546e-12 0.000000000000e+00
    4.800000000000e+01-2.965625000000e+01 4.586976780280e-09 2.127242807607e+00
   -1.462176442146e-06 5.039919866249e-03 7.454305887222e-06 5.153686973572e+03
    5.616000000000e+05-1.043081283569e-07-1.988630974348e+00-6.891787052155e-08
    9.571347058966e-01 2.310312500000e+02-2.359780389137e+00-8.042120700893e-09
   -9.214669542259e-11 1.000000000000e+00 2.164000000000e+03 0.000000000000e+00
    2.400000000000e+00 0.000000000000e+00 4.656612873077e-10 4.800000000000e+01
    5.544000000000e+05 4.000000000000e+00
19 21  7  3 12  0  0.0 2.142973244190e-05 5.002220859751e-12 0.000000000000e+00
    6.500000000000e+01-4.015625000000e+01 4.137672350662e-09-2.414014703436e+00
   -1.903623342514e-06 9.307697531767e-03 5.390495061874e-06 5.153642606735e+03
    5.616000000000e+05 7.450580596924e-08 1.265795849958e+00 1.173466444016e-07
    9.802882006183e-01 2.850625000000e+02 1.877578497412e+00-7.866399095669e-09
   -2.264380034803e-10 1.000000000000e+00 2.164000000000e+03 0.000000000000e+00
    2.400000000000e+00 0.000000000000e+00-1.536682248116e-08 6.500000000000e+01
    5.544000000000e+05 4.000000000000e+00
14 21  7  3 12  0  0.0 5.610287189484e-05-8.640199666843e-12 0.000000000000e+00
    7.600000000000e+01 6.350000000000e+01 4.851273503585e-09-2.009029036535e+00
    3.257766366005e-06 8.681556209922e-04 5.630776286125e-06 5.153753582001e+03
    5.616000000000e+05-4.656612873077e-08 1.567637529710e-01-5.960464477539e-08
    9.569208550689e-01 2.717812500000e+02 2.903496104781e+00-8.308560370603e-09
    1.203621564241e-10 1.000000000000e+00 2.164000000000e+03 0.000000000000e+00
    2.400000000000e+00 0.000000000000e+00-7.916241884232e-09 7.600000000000e+01
    5.544000000000e+05 4.000000000000e+00
21 21  7  3 12  0  0.0 1.289574429393e-04 2.387423592154e-12 0.000000000000e+00
    9.100000000000e+01-4.140625000000e+01 4.426612957626e-09 1.559363197759e+00
   -2.495944499969e-06 2.401127014309e-02 8.143484592438e-06 5.153672807693e+03
    5.616000000000e+05 5.140900611877e-07 2.133238318419e+00-1.471489667892e-07
    9.574898014649e-01 2.104687500000e+02-1.118165514413e+00-7.854612890440e-09
   -1.346484657919e-10 1.000000000000e+00 2.164000000000e+03 0.000000000000e+00
    2.400000000000e+00 0.000000000000e+00-1.024454832077e-08 9.100000000000e+01
    5.544000000000e+05 4.000000000000e+00
13 21  7  3 12  0  0.0 1.528239808977e-04 5.002220859751e-12 0.000000000000e+00
    7.100000000000e+01-3.037500000000e+01 4.401969073967e-09 8.666156461802e-01
   -1.661479473114e-06 5.071854218841e-03 7.836148142815e-06 5.153680803299e+03
    5.616000000000e+05-8.754432201385e-08-1.849562884735e+00-3.166496753693e-08
    9.678518842873e-01 2.322812500000e+02 9.586445412216e-01-8.018905448170e-09
   -1.967939115420e-10 1.000000000000e+00 2.164000000000e+03 0.000000000000e+00
    2.400000000000e+00 0.000000000000e+00-1.117587089539e-08 7.100000000000e+01
    5.544000000000e+05 4.000000000000e+00
26 21  7  3 12  0  0.0 1.060361973941e-04 4.661160346586e-12 0.000000000000e+00
    9.000000000000e+01 6.353125000000e+01 5.172358306628e-09-3.063111346951e+00
    3.311783075333e-06 5.901751224883e-03 5.336478352547e-06 5.153585033417e+03
    5.616000000000e+05-4.470348358154e-08 6.782616036326e-02-9.126961231232e-08
    9.417150972995e-01 2.692812500000e+02 3.042683360775e-01-8.339633093479e-09
    1.467918287546e-10 1.000000000000e+00 2.164000000000e+03 0.000000000000e+00
    2.400000000000e+00 0.000000000000e+00 6.984919309616e-09 9.000000000000e+01
    5.544000000000e+05 4.000000000000e+00
25 21  7  3 12  0  0.0 1.668995246291e-04 6.821210263297e-12 0.000000000000e+00
    7.700000000000e+01 6.443750000000e+01 4.724839665680e-09-2.385428087500e+00
    3.263354301453e-06 9.835284552537e-03 5.319714546204e-06 5.153608913422e+03
    5.616000000000e+05 2.048909664154e-07 1.105546181179e-01-2.793967723846e-08
    9.608113086876e-01 2.761562500000e+02 9.728562929696e-01-8.124266979758e-09
    2.135803250493e-10 1.000000000000e+00 2.164000000000e+03 0.000000000000e+00
    2.400000000000e+00 0.000000000000e+00 5.587935447693e-09 7.700000000000e+01
    5.544000000000e+05 4.000000000000e+00
24 21  7  3 12  0  0.0 1.593856140971e-04 1.568878360558e-11 0.000000000000e+00
    5.300000000000e+01 2.500000000000e+01 5.129856536258e-09-4.358218719475e-01
    1.486390829086e-06 1.118632522412e-02 9.309500455856e-06 5.153726203918e+03
    5.616000000000e+05 7.078051567078e-08-1.005003812431e+00 1.583248376846e-07
    9.347153502805e-01 1.897500000000e+02 7.429306595069e-01-8.417493479533e-09
   -1.785788670980e-11 1.000000000000e+00 2.164000000000e+03 0.000000000000e+00
    2.400000000000e+00 0.000000000000e+00 2.793967723846e-09 5.300000000000e+01
    5.544000000000e+05 4.000000000000e+00
20 21  7  3 12  0  0.0 5.205618217587e-04-3.410605131648e-13 0.000000000000e+00
    1.090000000000e+02-3.125000000000e-01 5.110927176346e-09 9.865059623331e-02
   -8.568167686462e-08 6.080275285058e-03 6.822869181633e-06 5.151748083115e+03
    5.616000000000e+05 1.080334186554e-07 3.107932248619e+00-1.303851604462e-08
    9.390356194713e-01 2.381562500000e+02 3.041208672057e+00-8.474995874739e-09
    2.339383158984e-10 1.000000000000e+00 2.164000000000e+03 0.000000000000e+00
    2.400000000000e+00 0.000000000000e+00-8.381903171539e-09 1.090000000000e+02
    5.544000000000e+05 4.000000000000e+00
23 21  7  3 12  0  0.0 8.950941264629e-05-4.774847184308e-12 0.000000000000e+00
    1.860000000000e+02-2.750000000000e+00 4.382325398586e-09-1.189992122280e+00
   -2.235174179077e-08 1.348067657091e-03 6.729736924171e-06 5.153654682159e+03
    5.616000000000e+05-8.568167686462e-08-3.054709616780e+00 2.421438694000e-08
    9.649945770632e-01 2.534062500000e+02 2.614431770972e+00-7.976403677801e-09
    2.410814705824e-10 1.000000000000e+00 2.164000000000e+03 0.000000000000e+00
    2.400000000000e+00 0.000000000000e+00-8.381903171539e-09 6.980000000000e+02
    5.544000000000e+05 4.000000000000e+00
18 21  7  3 12  0  0.0 3.433898091316e-04-2.387423592154e-12 0.000000000000e+00
    1.730000000000e+02-2.737500000000e+01 4.159458972448e-09-4.550459277465e-01
   -1.559033989906e-06 1.608982915059e-03 8.953735232353e-06 5.153658369064e+03
    5.616000000000e+05 3.166496753693e-08 2.229187873411e+00-7.078051567078e-08
    9.684726955180e-01 2.145000000000e+02 2.879128977610e+00-7.872113619416e-09
   -6.285976121851e-11 1.000000000000e+00 2.164000000000e+03 0.000000000000e+00
    2.400000000000e+00 0.000000000000e+00-8.381903171539e-09 4.290000000000e+02
    5.544000000000e+05 4.000000000000e+00
11 21  7  3 12  0  0.0 5.428679287434e-06 1.193711796077e-11 0.000000000000e+00
    5.800000000000e+01-3.715625000000e+01 4.453399787691e-09 2.640879878630e+00
   -1.858919858932e-06 5.073895445094e-04 8.368864655495e-06 5.153662355423e+03
    5.616000000000e+05 4.097819328308e-08 2.267092702585e+00-9.313225746155e-09
    9.597348174931e-01 2.178750000000e+02 1.589998475396e+00-8.021048394576e-09
    1.785788670980e-12 1.000000000000e+00 2.164000000000e+03 0.000000000000e+00
    2.400000000000e+00 6.300000000000e+01-5.587935447693e-09 5.800000000000e+01
    5.544000000000e+05 4.000000000000e+00
28 21  7  3 12  0  0.0 5.442625842988e-04-6.480149750132e-12 0.000000000000e+00
    3.200000000000e+01 5.962500000000e+01 4.431613165905e-09 1.954251125284e+00
    2.911314368248e-06 1.746823207941e-02 5.125999450684e-06 5.153729913712e+03
    5.616000000000e+05 2.570450305939e-07 2.067391162912e-01-1.154839992523e-07
    9.726094138403e-01 2.838437500000e+02-1.346071449027e+00-7.884256982379e-09
    3.571577341961e-11 1.000000000000e+00 2.164000000000e+03 0.000000000000e+00
    2.400000000000e+00 6.300000000000e+01-1.117587089539e-08 3.200000000000e+01
    5.544000000000e+05 4.000000000000e+00
